{"type": "FeatureCollection", "features": [ {"type": "Feature", "properties": {"norad_id": 41175, "name": "GSAT0208 (GALILEO 11)", "group": "galileo", "lat": -35.21350190802088, "lon": -45.23540463337806, "alt_km": 23229.76941382692, "timestamp": "2025-12-25T09:48:52.553397+00:00", "meta": {"OBJECT_NAME": "GSAT0208 (GALILEO 11)", "OBJECT_ID": "2015-079B", "EPOCH": "2025-12-24T10:58:05.169792", "MEAN_MOTION": 1.70474188, "ECCENTRICITY": 0.0001919, "INCLINATION": 55.7178, "RA_OF_ASC_NODE": 106.0566, "ARG_OF_PERICENTER": 349.2148, "MEAN_ANOMALY": 10.7717, "EPHEMERIS_TYPE": 0, "CLASSIFICATION_TYPE": "U", "NORAD_CAT_ID": 41175, "ELEMENT_SET_NO": 999, "REV_AT_EPOCH": 6221, "BSTAR": 0, "MEAN_MOTION_DOT": 1.6e-07, "MEAN_MOTION_DDOT": 0}, "tle": {"line1": "1 41175U 15079B   25358.45700428  .00000016  00000+0  00000+0 0  9998", "line2": "2 41175  55.7178 106.0566 0001919 349.2148  10.7717  1.70474188 62212"}}, "geometry": {"type": "Point", "coordinates": [-45.23540463337806, -35.21350190802088]}}, {"type": "Feature", "properties": {"norad_id": 41549, "name": "GSAT0211 (GALILEO 14)", "group": "galileo", "lat": 25.655973451318257, "lon": 26.94065352619118, "alt_km": 23227.088188597518, "timestamp": "2025-12-25T09:48:52.553408+00:00", "meta": {"OBJECT_NAME": "GSAT0211 (GALILEO 14)", "OBJECT_ID": "2016-030A", "EPOCH": "2025-12-23T23:52:07.352256", "MEAN_MOTION": 1.70473256, "ECCENTRICITY": 0.0004011, "INCLINATION": 55.1486, "RA_OF_ASC_NODE": 226.5135, "ARG_OF_PERICENTER": 16.1635, "MEAN_ANOMALY": 343.9466, "EPHEMERIS_TYPE": 0, "CLASSIFICATION_TYPE": "U", "NORAD_CAT_ID": 41549, "ELEMENT_SET_NO": 999, "REV_AT_EPOCH": 5968, "BSTAR": 0, "MEAN_MOTION_DOT": 7.2e-07, "MEAN_MOTION_DDOT": 0}, "tle": {"line1": "1 41549U 16030A   25357.99452954  .00000072  00000+0  00000+0 0  9999", "line2": "2 41549  55.1486 226.5135 0004011  16.1635 343.9466  1.70473256 59684"}}, "geometry": {"type": "Point", "coordinates": [26.94065352619118, 25.655973451318257]}}, {"type": "Feature", "properties": {"norad_id": 41550, "name": "GSAT0210 (GALILEO 13)", "group": "galileo", "lat": -8.11987406623954, "lon": -139.21706723216676, "alt_km": 23225.234689730336, "timestamp": "2025-12-25T09:48:52.553419+00:00", "meta": {"OBJECT_NAME": "GSAT0210 (GALILEO 13)", "OBJECT_ID": "2016-030B", "EPOCH": "2025-12-24T20:07:27.602688", "MEAN_MOTION": 1.70473396, "ECCENTRICITY": 5.68e-05, "INCLINATION": 55.1478, "RA_OF_ASC_NODE": 226.4883, "ARG_OF_PERICENTER": 175.0994, "MEAN_ANOMALY": 184.9941, "EPHEMERIS_TYPE": 0, "CLASSIFICATION_TYPE": "U", "NORAD_CAT_ID": 41550, "ELEMENT_SET_NO": 999, "REV_AT_EPOCH": 5969, "BSTAR": 0, "MEAN_MOTION_DOT": 7.1e-07, "MEAN_MOTION_DDOT": 0}, "tle": {"line1": "1 41550U 16030B   25358.83851392  .00000071  00000+0  00000+0 0  9993", "line2": "2 41550  55.1478 226.4883 0000568 175.0994 184.9941  1.70473396 59699"}}, "geometry": {"type": "Point", "coordinates": [-139.21706723216676, -8.11987406623954]}}, {"type": "Feature", "properties": {"norad_id": 41859, "name": "GSAT0207 (GALILEO 15)", "group": "galileo", "lat": 0.5388422016051974, "lon": -74.47173619628394, "alt_km": 23227.714989501386, "timestamp": "2025-12-25T09:48:52.553430+00:00", "meta": {"OBJECT_NAME": "GSAT0207 (GALILEO 15)", "OBJECT_ID": "2016-069A", "EPOCH": "2025-12-22T04:24:39.710016", "MEAN_MOTION": 1.70474442, "ECCENTRICITY": 0.00024396, "INCLINATION": 55.3874, "RA_OF_ASC_NODE": 105.9888, "ARG_OF_PERICENTER": 317.4324, "MEAN_ANOMALY": 42.5257, "EPHEMERIS_TYPE": 0, "CLASSIFICATION_TYPE": "U", "NORAD_CAT_ID": 41859, "ELEMENT_SET_NO": 999, "REV_AT_EPOCH": 5638, "BSTAR": 0, "MEAN_MOTION_DOT": 6e-08, "MEAN_MOTION_DDOT": 0}, "tle": {"line1": "1 41859U 16069A   25356.18379294  .00000006  00000+0  00000+0 0  9997", "line2": "2 41859  55.3874 105.9888 0002439 317.4324  42.5257  1.70474442 56382"}}, "geometry": {"type": "Point", "coordinates": [-74.47173619628394, 0.5388422016051974]}}, {"type": "Feature", "properties": {"norad_id": 41860, "name": "GSAT0212 (GALILEO 16)", "group": "galileo", "lat": -55.399042974130396, "lon": 14.428277751652873, "alt_km": 23229.95577566631, "timestamp": "2025-12-25T09:48:52.553441+00:00", "meta": {"OBJECT_NAME": "GSAT0212 (GALILEO 16)", "OBJECT_ID": "2016-069B", "EPOCH": "2025-12-23T19:07:58.296864", "MEAN_MOTION": 1.70474626, "ECCENTRICITY": 0.0002039, "INCLINATION": 55.3859, "RA_OF_ASC_NODE": 105.9395, "ARG_OF_PERICENTER": 17.7426, "MEAN_ANOMALY": 342.2518, "EPHEMERIS_TYPE": 0, "CLASSIFICATION_TYPE": "U", "NORAD_CAT_ID": 41860, "ELEMENT_SET_NO": 999, "REV_AT_EPOCH": 5666, "BSTAR": 0, "MEAN_MOTION_DOT": 1.3e-07, "MEAN_MOTION_DDOT": 0}, "tle": {"line1": "1 41860U 16069B   25357.79720251  .00000013  00000+0  00000+0 0  9998", "line2": "2 41860  55.3859 105.9395 0002039  17.7426 342.2518  1.70474626 56664"}}, "geometry": {"type": "Point", "coordinates": [14.428277751652873, -55.399042974130396]}}, {"type": "Feature", "properties": {"norad_id": 41861, "name": "GSAT0213 (GALILEO 17)", "group": "galileo", "lat": 34.586144336814904, "lon": 134.2927673336301, "alt_km": 23222.057079943144, "timestamp": "2025-12-25T09:48:52.553459+00:00", "meta": {"OBJECT_NAME": "GSAT0213 (GALILEO 17)", "OBJECT_ID": "2016-069C", "EPOCH": "2025-12-21T19:38:29.842080", "MEAN_MOTION": 1.70474953, "ECCENTRICITY": 0.00027355, "INCLINATION": 55.3872, "RA_OF_ASC_NODE": 106.002, "ARG_OF_PERICENTER": 282.3014, "MEAN_ANOMALY": 77.6427, "EPHEMERIS_TYPE": 0, "CLASSIFICATION_TYPE": "U", "NORAD_CAT_ID": 41861, "ELEMENT_SET_NO": 999, "REV_AT_EPOCH": 5649, "BSTAR": 0, "MEAN_MOTION_DOT": 4e-08, "MEAN_MOTION_DDOT": 0}, "tle": {"line1": "1 41861U 16069C   25355.81840095  .00000004  00000+0  00000+0 0  9999", "line2": "2 41861  55.3872 106.0020 0002735 282.3014  77.6427  1.70474953 56495"}}, "geometry": {"type": "Point", "coordinates": [134.2927673336301, 34.586144336814904]}}, {"type": "Feature", "properties": {"norad_id": 41862, "name": "GSAT0214 (GALILEO 18)", "group": "galileo", "lat": -36.32905506627544, "lon": 75.42290735412305, "alt_km": 23221.91966094664, "timestamp": "2025-12-25T09:48:52.553480+00:00", "meta": {"OBJECT_NAME": "GSAT0214 (GALILEO 18)", "OBJECT_ID": "2016-069D", "EPOCH": "2025-12-24T07:27:29.645856", "MEAN_MOTION": 1.70474781, "ECCENTRICITY": 0.00017476, "INCLINATION": 55.3867, "RA_OF_ASC_NODE": 105.9257, "ARG_OF_PERICENTER": 287.2715, "MEAN_ANOMALY": 72.6994, "EPHEMERIS_TYPE": 0, "CLASSIFICATION_TYPE": "U", "NORAD_CAT_ID": 41862, "ELEMENT_SET_NO": 999, "REV_AT_EPOCH": 5666, "BSTAR": 0, "MEAN_MOTION_DOT": 1.5e-07, "MEAN_MOTION_DDOT": 0}, "tle": {"line1": "1 41862U 16069D   25358.31075979  .00000015  00000+0  00000+0 0  9991", "line2": "2 41862  55.3867 105.9257 0001747 287.2715  72.6994  1.70474781 56666"}}, "geometry": {"type": "Point", "coordinates": [75.42290735412305, -36.32905506627544]}}, {"type": "Feature", "properties": {"norad_id": 43055, "name": "GSAT0215 (GALILEO 19)", "group": "galileo", "lat": 10.745014049114156, "lon": -126.09389340694199, "alt_km": 23217.767990230634, "timestamp": "2025-12-25T09:48:52.553493+00:00", "meta": {"OBJECT_NAME": "GSAT0215 (GALILEO 19)", "OBJECT_ID": "2017-079A", "EPOCH": "2025-12-24T05:08:42.877824", "MEAN_MOTION": 1.70473983, "ECCENTRICITY": 0.00011857, "INCLINATION": 55.1264, "RA_OF_ASC_NODE": 226.3216, "ARG_OF_PERICENTER": 351.3988, "MEAN_ANOMALY": 8.6951, "EPHEMERIS_TYPE": 0, "CLASSIFICATION_TYPE": "U", "NORAD_CAT_ID": 43055, "ELEMENT_SET_NO": 999, "REV_AT_EPOCH": 5000, "BSTAR": 0, "MEAN_MOTION_DOT": 7.2e-07, "MEAN_MOTION_DDOT": 0}, "tle": {"line1": "1 43055U 17079A   25358.21438516  .00000072  00000+0  00000+0 0  9991", "line2": "2 43055  55.1264 226.3216 0001185 351.3988   8.6951  1.70473983 50002"}}, "geometry": {"type": "Point", "coordinates": [-126.09389340694199, 10.745014049114156]}}, {"type": "Feature", "properties": {"norad_id": 43056, "name": "GSAT0216 (GALILEO 20)", "group": "galileo", "lat": -11.756681311022879, "lon": 54.64651040678311, "alt_km": 23228.46537100725, "timestamp": "2025-12-25T09:48:52.553504+00:00", "meta": {"OBJECT_NAME": "GSAT0216 (GALILEO 20)", "OBJECT_ID": "2017-079B", "EPOCH": "2025-12-22T17:54:08.003808", "MEAN_MOTION": 1.70474127, "ECCENTRICITY": 0.00023154, "INCLINATION": 55.1272, "RA_OF_ASC_NODE": 226.3621, "ARG_OF_PERICENTER": 325.7724, "MEAN_ANOMALY": 34.3161, "EPHEMERIS_TYPE": 0, "CLASSIFICATION_TYPE": "U", "NORAD_CAT_ID": 43056, "ELEMENT_SET_NO": 999, "REV_AT_EPOCH": 4999, "BSTAR": 0, "MEAN_MOTION_DOT": 7.3e-07, "MEAN_MOTION_DDOT": 0}, "tle": {"line1": "1 43056U 17079B   25356.74592597  .00000073  00000+0  00000+0 0  9999", "line2": "2 43056  55.1272 226.3621 0002315 325.7724  34.3161  1.70474127 49997"}}, "geometry": {"type": "Point", "coordinates": [54.64651040678311, -11.756681311022879]}}, {"type": "Feature", "properties": {"norad_id": 43057, "name": "GSAT0217 (GALILEO 21)", "group": "galileo", "lat": 44.63780883744937, "lon": -90.18819636983508, "alt_km": 23212.373813420898, "timestamp": "2025-12-25T09:48:52.553516+00:00", "meta": {"OBJECT_NAME": "GSAT0217 (GALILEO 21)", "OBJECT_ID": "2017-079C", "EPOCH": "2025-12-24T03:21:20.619936", "MEAN_MOTION": 1.70473665, "ECCENTRICITY": 0.00026088, "INCLINATION": 55.1247, "RA_OF_ASC_NODE": 226.3216, "ARG_OF_PERICENTER": 4.3447, "MEAN_ANOMALY": 355.754, "EPHEMERIS_TYPE": 0, "CLASSIFICATION_TYPE": "U", "NORAD_CAT_ID": 43057, "ELEMENT_SET_NO": 999, "REV_AT_EPOCH": 5000, "BSTAR": 0, "MEAN_MOTION_DOT": 7.2e-07, "MEAN_MOTION_DDOT": 0}, "tle": {"line1": "1 43057U 17079C   25358.13982199  .00000072  00000+0  00000+0 0  9995", "line2": "2 43057  55.1247 226.3216 0002608   4.3447 355.7540  1.70473665 50008"}}, "geometry": {"type": "Point", "coordinates": [-90.18819636983508, 44.63780883744937]}}]}